OBJECT_NAME,OBJECT_ID,EPOCH,MEAN_MOTION,ECCENTRICITY,INCLINATION,RA_OF_ASC_NODE,ARG_OF_PERICENTER,MEAN_ANOMALY,EPHEMERIS_TYPE,CLASSIFICATION_TYPE,NORAD_CAT_ID,ELEMENT_SET_NO,REV_AT_EPOCH,BSTAR,MEAN_MOTION_DOT,MEAN_MOTION_DDOT
TAURUS-1 (JINNIUZUO 1),2019-059C,2026-06-05T06:42:24.911136,14.71966018,.00080791,98.6412,320.3700,357.7872,2.3296,0,U,44530,999,35689,.11838445E-2,.7379E-4,0
ZHUHAI-1 03B,2019-060C,2026-06-05T06:27:16.928352,15.53397456,.00081256,97.5523,313.3981,7.0590,353.0776,0,U,44536,999,37447,.43490213E-3,.27497E-3,0
ZHUHAI-1 03D,2019-060E,2026-06-05T06:37:25.084992,15.49049751,.00070302,97.5385,305.6314,350.6247,9.4871,0,U,44538,999,37423,.52455194E-3,.28424E-3,0
ZHUHAI-1 03E,2019-060F,2026-06-05T07:04:08.558400,15.40662934,.00068128,97.5606,305.8340,71.7781,288.4206,0,U,44539,999,37393,.40430033E-3,.16426E-3,0
BEIDOU-3 M24,2019-061A,2026-06-04T08:32:01.071744,1.86229272,.00082925,54.3958,183.1608,359.5616,0.4973,0,U,44542,999,4555,0,.7E-6,0
BEIDOU-3 M23,2019-061B,2026-06-05T03:50:47.412672,1.86227560,.00055253,54.3945,183.1018,339.5866,111.6566,0,U,44543,999,4557,0,.75E-6,0
YUNHAI-1 02,2019-063A,2026-06-05T06:13:28.303104,14.32696880,.00056555,98.4121,167.0537,177.3198,182.8018,0,U,44547,999,35016,.11681118E-3,.275E-5,0
COSMOS 2541,2019-065A,2026-06-03T19:29:19.620096,2.00603472,.64897847,62.7146,158.2105,272.1291,20.3511,0,U,44552,999,4895,0,.193E-5,0
GAOFEN-10R,2019-066A,2026-06-05T06:41:56.032800,14.83033292,.00057925,98.0497,109.7722,161.3049,198.8378,0,U,44622,999,36061,.1609841E-3,.1255E-4,0
EUTELSAT 5 WEST B,2019-067A,2026-06-05T06:38:56.852160,1.00272107,.00033402,0.0652,339.9160,94.9654,273.5752,0,U,44624,999,2431,0,-.3E-6,0
PALISADE,2019-069A,2026-06-05T01:49:24.993408,13.11906514,.00111177,87.8868,282.1705,98.3917,261.8472,0,U,44634,999,31752,-.11255491E-2,-.389E-5,0
TJS-4,2019-070A,2026-06-05T05:07:38.604000,1.00271200,.00051144,0.0210,277.2425,122.0512,14.8038,0,U,44637,999,2441,0,-.158E-5,0
GAOFEN-7,2019-072A,2026-06-05T05:30:38.513952,15.21508349,.00181335,97.2429,218.1449,79.5368,280.7910,0,U,44703,999,36582,.22836472E-3,.5095E-4,0
BEIDOU-3 IGSO-3,2019-073A,2026-05-16T19:27:04.075776,1.00246251,.0042953,54.8566,281.2355,189.4588,170.3676,0,U,44709,999,2414,0,-.217E-5,0
STARLINK-1008,2019-074B,2026-06-04T05:10:54.637824,15.48421943,.0002865,53.1519,130.7570,81.5907,278.5426,0,U,44714,999,36220,.10572044E-2,.56975E-3,0
STARLINK-1012,2019-074F,2026-06-05T05:55:42.732768,15.48857721,.00027081,53.1566,126.1246,78.8529,281.2785,0,U,44718,999,36235,.11910335E-2,.65305E-3,0
STARLINK-1017,2019-074L,2026-06-04T05:16:31.018944,15.31043249,.0005197,53.0466,129.9700,30.1386,329.9911,0,U,44723,999,36219,.15165005E-2,.46045E-3,0
STARLINK-1020,2019-074N,2026-06-05T06:40:18.405984,15.53988232,.00045279,53.1567,150.1268,49.3432,310.7972,0,U,44725,999,36200,.10686168E-2,.70453E-3,0
STARLINK-1036,2019-074AE,2026-06-05T01:14:28.597632,15.68842586,.00031502,53.0410,120.6529,4.8817,355.2229,0,U,44741,999,36239,.52251728E-3,.60959E-3,0
STARLINK-1039,2019-074AH,2026-06-04T08:57:59.873760,15.28290714,.0004383,53.0598,174.5698,30.8297,329.2958,0,U,44744,999,36158,.13181665E-2,.36653E-3,0
STARLINK-1042,2019-074AL,2026-06-04T23:22:28.336512,15.54023343,.00031663,53.0427,34.6238,91.0166,269.1206,0,U,44747,999,36362,.39551927E-3,.25658E-3,0
STARLINK-1043,2019-074AM,2026-06-04T05:50:06.776736,15.62242200,.00008177,53.0469,134.7282,98.8187,261.2919,0,U,44748,999,36213,.54483563E-3,.48664E-3,0
STARLINK-1046,2019-074AQ,2026-06-04T06:12:02.476800,15.54423989,.00074318,53.0465,156.0397,43.2632,316.8960,0,U,44751,999,36183,.63859392E-3,.42467E-3,0
STARLINK-1047,2019-074AR,2026-06-05T02:05:55.636800,15.34490522,.00037278,53.0696,97.1253,101.3574,258.7846,0,U,44752,999,36275,.25064703E-3,.8126E-4,0
STARLINK-1048,2019-074AS,2026-06-05T00:59:35.046240,15.66994382,.00070023,53.0439,102.6639,48.2499,311.9114,0,U,44753,999,36264,.52320086E-3,.56598E-3,0
STARLINK-1063,2019-074BH,2026-06-05T06:16:09.573888,15.48541593,.00025345,53.1549,166.7903,42.9157,317.2049,0,U,44768,999,36180,.10765855E-2,.5828E-3,0
STARLINK-1067,2019-074BL,2026-06-05T08:00:03.000384,15.75909165,.00020432,53.0420,133.2117,69.5497,97.5625,0,U,44771,999,589,.33034904E-2,.556604E-2,0
STARLINK-1068,2019-074BM,2026-06-05T07:27:08.712000,15.74896521,.00023273,53.0418,106.9974,112.3637,247.7628,0,U,44772,999,36260,.46104207E-3,.69578E-3,0
JILIN-1 GAOFEN 2A,2019-075A,2026-06-05T07:15:59.283936,15.38984313,.000762,97.4962,239.8181,122.0676,238.1310,0,U,44777,999,36305,.33663975E-3,.12926E-3,0
NINGXIA-1 1,2019-076A,2026-06-05T06:45:23.291712,14.02037302,.00101444,45.0049,233.0568,104.0812,256.1151,0,U,44779,999,33618,.26426645E-4,-.89E-6,0
