TAURUS-1 (JINNIUZUO 1)  
1 44530U 19059C   26156.27945499  .00007379  00000+0  11838-2 0  9997
2 44530  98.6412 320.3700 0008079 357.7872   2.3296 14.71966018356892
ZHUHAI-1 03B            
1 44536U 19060C   26156.26894593  .00027497  00000+0  43490-3 0  9995
2 44536  97.5523 313.3981 0008125   7.0590 353.0776 15.53397456374474
ZHUHAI-1 03D            
1 44538U 19060E   26156.27598478  .00028424  00000+0  52455-3 0  9993
2 44538  97.5385 305.6314 0007030 350.6247   9.4871 15.49049751374235
ZHUHAI-1 03E            
1 44539U 19060F   26156.29454350  .00016426  00000+0  40430-3 0  9995
2 44539  97.5606 305.8340 0006812  71.7781 288.4206 15.40662934373936
BEIDOU-3 M24            
1 44542U 19061A   26155.35556796  .00000070  00000+0  00000+0 0  9996
2 44542  54.3958 183.1608 0008292 359.5616   0.4973  1.86229272 45559
BEIDOU-3 M23            
1 44543U 19061B   26156.16027098  .00000075  00000+0  00000+0 0  9990
2 44543  54.3945 183.1018 0005525 339.5866 111.6566  1.86227560 45575
YUNHAI-1 02             
1 44547U 19063A   26156.25935536  .00000275  00000+0  11681-3 0  9994
2 44547  98.4121 167.0537 0005655 177.3198 182.8018 14.32696880350167
COSMOS 2541             
1 44552U 19065A   26154.81203264  .00000193  00000+0  00000+0 0  9996
2 44552  62.7146 158.2105 6489784 272.1291  20.3511  2.00603472 48952
GAOFEN-10R              
1 44622U 19066A   26156.27912075  .00001255  00000+0  16098-3 0  9992
2 44622  98.0497 109.7722 0005792 161.3049 198.8378 14.83033292360617
EUTELSAT 5 WEST B       
1 44624U 19067A   26156.27704690 -.00000030  00000+0  00000+0 0  9990
2 44624   0.0652 339.9160 0003340  94.9654 273.5752  1.00272107 24314
PALISADE                
1 44634U 19069A   26156.07598372 -.00000389  00000+0 -11255-2 0  9994
2 44634  87.8868 282.1705 0011117  98.3917 261.8472 13.11906514317520
TJS-4                   
1 44637U 19070A   26156.21364125 -.00000158  00000+0  00000+0 0  9998
2 44637   0.0210 277.2425 0005114 122.0512  14.8038  1.00271200 24410
GAOFEN-7                
1 44703U 19072A   26156.22961243  .00005095  00000+0  22836-3 0  9998
2 44703  97.2429 218.1449 0018133  79.5368 280.7910 15.21508349365825
BEIDOU-3 IGSO-3         
1 44709U 19073A   26136.81046384 -.00000217  00000+0  00000+0 0  9995
2 44709  54.8566 281.2355 0042953 189.4588 170.3676  1.00246251 24144
STARLINK-1008           
1 44714U 19074B   26155.21591016  .00056975  00000+0  10572-2 0  9993
2 44714  53.1519 130.7570 0002865  81.5907 278.5426 15.48421943362208
STARLINK-1012           
1 44718U 19074F   26156.24702237  .00065305  00000+0  11910-2 0  9994
2 44718  53.1566 126.1246 0002708  78.8529 281.2785 15.48857721362350
STARLINK-1017           
1 44723U 19074L   26155.21980346  .00046045  00000+0  15165-2 0  9991
2 44723  53.0466 129.9700 0005197  30.1386 329.9911 15.31043249362194
STARLINK-1020           
1 44725U 19074N   26156.27799081  .00070453  00000+0  10686-2 0  9997
2 44725  53.1567 150.1268 0004527  49.3432 310.7972 15.53988232362003
STARLINK-1036           
1 44741U 19074AE  26156.05171988  .00060959  00000+0  52252-3 0  9997
2 44741  53.0410 120.6529 0003150   4.8817 355.2229 15.68842586362391
STARLINK-1039           
1 44744U 19074AH  26155.37360965  .00036653  00000+0  13182-2 0  9991
2 44744  53.0598 174.5698 0004383  30.8297 329.2958 15.28290714361582
STARLINK-1042           
1 44747U 19074AL  26155.97393908  .00025658  00000+0  39552-3 0  9996
2 44747  53.0427  34.6238 0003166  91.0166 269.1206 15.54023343363620
STARLINK-1043           
1 44748U 19074AM  26155.24313399  .00048664  00000+0  54484-3 0  9996
2 44748  53.0469 134.7282 0000817  98.8187 261.2919 15.62242200362139
STARLINK-1046           
1 44751U 19074AQ  26155.25836200  .00042467  00000+0  63859-3 0  9993
2 44751  53.0465 156.0397 0007431  43.2632 316.8960 15.54423989361836
STARLINK-1047           
1 44752U 19074AR  26156.08744950  .00008126  00000+0  25065-3 0  9997
2 44752  53.0696  97.1253 0003727 101.3574 258.7846 15.34490522362758
STARLINK-1048           
1 44753U 19074AS  26156.04137785  .00056598  00000+0  52320-3 0  9996
2 44753  53.0439 102.6639 0007002  48.2499 311.9114 15.66994382362645
STARLINK-1063           
1 44768U 19074BH  26156.26122192  .00058280  00000+0  10766-2 0  9999
2 44768  53.1549 166.7903 0002534  42.9157 317.2049 15.48541593361801
STARLINK-1067           
1 44771U 19074BL  26156.33336806  .00556604  00000+0  33035-2 0  9997
2 44771  53.0420 133.2117 0002043  69.5497  97.5625 15.75909165  5890
STARLINK-1068           
1 44772U 19074BM  26156.31051750  .00069578  00000+0  46104-3 0  9999
2 44772  53.0418 106.9974 0002327 112.3637 247.7628 15.74896521362601
JILIN-1 GAOFEN 2A       
1 44777U 19075A   26156.30276949  .00012926  00000+0  33664-3 0  9995
2 44777  97.4962 239.8181 0007620 122.0676 238.1310 15.38984313363059
NINGXIA-1 1             
1 44779U 19076A   26156.28151958 -.00000089  00000+0  26427-4 0  9995
2 44779  45.0049 233.0568 0010144 104.0812 256.1151 14.02037302336182
